{"fetched_at":"2026-05-17T20:49:53Z","count":18081,"tles":[{"name":"LEMUR-2-KREMPEL-BRO1","line1":"1 63357U 25061G   26137.19986311  .00002825  00000+0  15720-3 0  9999","line2":"2 63357  97.5597 113.2911 0018777   1.8674 358.2625 15.14340626 62946","category":"Other"},{"name":"CAS500-2 RIDESHARE OBJE*","line1":"1 68997U 26100T   26137.15224712  .00000909  00000+0  96202-4 0  9991","line2":"2 68997  97.7393  35.1817 0001282 199.2631 160.8540 14.91549776  2074","category":"Other"},{"name":"STARLINK-30476","line1":"1 57930U 23147T   26137.16668980  .00834889  00000+0  73031-2 0  9999","line2":"2 57930  42.9926 234.6807 0017297 207.8739  53.6272 15.65420173  5891","category":"Starlink"},{"name":"STARLINK-34148","line1":"1 64111U 25110R   26137.11966279  .00013775  00000+0  45468-3 0  9994","line2":"2 64111  53.1604  68.6133 0000901  99.3569 260.7534 15.31709428 56369","category":"Starlink"},{"name":"CZ-6A DEB","line1":"1 60828U 24140HF  24249.27311343  .00003272  00000+0  98446-3 0  9997","line2":"2 60828  89.0969 348.1052 0086538   1.7579 358.3909 14.40278908  3327","category":"Other"},{"name":"HULIANWANG DIGUI-116","line1":"1 66955U 25287C   26137.15192586  .00000041  00000+0  62036-4 0  9996","line2":"2 66955  86.4862 292.7735 0001419 107.8244 252.3045 13.24409764 21232","category":"Other"},{"name":"STARLINK-31435","line1":"1 59004U 24036G   26137.18434450 -.00000989  00000+0 -21261-4 0  9994","line2":"2 59004  53.1594 119.7297 0001168  87.7065 272.4070 15.30193965125824","category":"Starlink"},{"name":"STARLINK-34979","line1":"1 65254U 25179V   26137.13700918  .00000124  00000+0  12681-4 0  9992","line2":"2 65254  97.4839 180.1456 0001767 127.2843 232.8546 15.05648602 42112","category":"Starlink"},{"name":"STARLINK-32648","line1":"1 62301U 24239A   26136.95928985  .00003735  00000+0  13816-3 0  9994","line2":"2 62301  53.1611 224.2209 0000932  87.5265 272.5843 15.30197184 80018","category":"Starlink"},{"name":"STARLINK-36967","line1":"1 68013U 26039AD  26137.07846287  .00022067  00000+0  80773-3 0  9993","line2":"2 68013  43.0061  22.6257 0001793 284.8031  75.2622 15.27632279 12162","category":"Starlink"},{"name":"STARLINK-11160 [DTC]","line1":"1 60125U 24118N   26136.99700341  .00001017  00000+0  13248-4 0  9991","line2":"2 60125  53.1588 244.3886 0000838  70.1499 289.9609 15.69703983108722","category":"Starlink"},{"name":"HAVEN-DEMO","line1":"1 66312U 25248T   26038.25235715  .00058433  00000+0  75011-3 0  9997","line2":"2 66312  45.3987  95.1613 0125848 328.6136  30.7295 15.49394688 15939","category":"Other"},{"name":"STARLINK-33615","line1":"1 63426U 25065AD  26137.13409968  .00010847  00000+0  40293-3 0  9998","line2":"2 63426  42.9969  80.8242 0000503 234.7686 125.3119 15.27594268 63303","category":"Starlink"},{"name":"DRAGON CRS-34","line1":"1 69103U 26107A   26136.10407325  .00322650  11442-4  28729-3 0  9990","line2":"2 69103  51.6488  99.3260 0073202 229.8939 129.5643 16.06426992    25","category":"Other"},{"name":"STARLINK-34231","line1":"1 64175U 25113F   26137.19164728  .00008659  00000+0  29026-3 0  9991","line2":"2 64175  53.1579 132.9060 0001029 104.2393 255.8723 15.31721973 55551","category":"Starlink"},{"name":"CZ-6A DEB","line1":"1 60892U 24140KX  24249.57569511  .00001300  00000+0  60821-3 0  9999","line2":"2 60892  89.1492 348.4200 0055085  98.8088 261.9344 14.18914355  2513","category":"Other"},{"name":"STARLINK-36172","line1":"1 67020U 25293T   26136.82366427  .00003473  00000+0  29862-3 0  9998","line2":"2 67020  69.9999 282.6612 0002434 269.4367  90.6513 14.98340186 25088","category":"Starlink"},{"name":"STARLINK-37036","line1":"1 68077U 26042J   26137.19210844  .00025730  00000+0  77043-3 0  9990","line2":"2 68077  53.1587 218.3629 0002136  73.6674 286.4564 15.34384084 12823","category":"Starlink"},{"name":"SHIYAN-32 01","line1":"1 66376U 25255A   26137.04088119  .00016881  00000+0  30051-3 0  9992","line2":"2 66376  52.9913 155.7805 0010249 164.8527 195.2789 15.50233109 29381","category":"Other"},{"name":"HYDRA-W","line1":"1 63490U 25052BL  26112.26439385  .02130398  41366-2  26477-2 0  9994","line2":"2 63490  97.3739  16.4004 0007523 180.8298 179.2974 16.08789288 62060","category":"Other"},{"name":"STARLINK-5844","line1":"1 75844C 23088W   23185.72201389 -.00990876  00000-0 -57034-2 0  1859","line2":"2 75844  42.9988  44.4783 0001599 266.7828 100.1998 15.78728399    11","category":"Starlink"},{"name":"QIANFAN-70","line1":"1 62800U 25016R   26137.17314672  .00000063  00000+0  78324-4 0  9996","line2":"2 62800  88.9723  86.9806 0013134 244.0679 115.9119 13.51012300 68227","category":"Other"},{"name":"FGN-100-D3","line1":"1 68464U 26067BA  26137.11527431  .00003173  00000+0  16217-3 0  9995","line2":"2 68464  97.4505  95.9772 0003274 157.8712 202.2663 15.17393229  7220","category":"Other"},{"name":"GEESAT-6 04","line1":"1 65716U 25214E   26137.10291628  .00001040  00000+0  15322-3 0  9997","line2":"2 65716  49.9851  92.2362 0009131 105.0940 255.1009 14.83258319 34890","category":"Other"},{"name":"STARLINK-32465","line1":"1 61716U 24196K   26137.01535584 -.00000060  00000+0  10102-4 0  9997","line2":"2 61716  53.1598 144.2539 0001257  89.9894 270.1251 15.30191536 87618","category":"Starlink"},{"name":"STARLINK-36441","line1":"1 67469U 26008AA  26137.18211509  .00009732  00000+0  36250-3 0  9993","line2":"2 67469  42.9987 178.7200 0001283 290.0440  70.0273 15.27597825 20047","category":"Starlink"},{"name":"TITAN 3C TRANSTAGE R/B","line1":"1 08516U 75118C   26104.89923149 -.00000294  00000+0  00000+0 0  9994","line2":"2 08516   2.4312 259.9084 0011393 213.3573 146.1071  1.00554362 25140","category":"Other"},{"name":"STARLINK-4579","line1":"1 53677U 22105AF  26137.14094162 -.00001056  00000+0 -69120-4 0  9999","line2":"2 53677  97.4827  18.4721 0002321  75.8924 284.2561 15.05653191203608","category":"Starlink"},{"name":"STARLINK-34555","line1":"1 64665U 25139B   26136.82873934  .00012941  00000+0  39339-3 0  9995","line2":"2 64665  53.1598 170.0419 0000732  71.7162 288.3920 15.34407384 50622","category":"Starlink"},{"name":"FENGYUN 1C DEB","line1":"1 31661U 99025CBT 26104.19051351  .00001837  00000+0  77001-3 0  9996","line2":"2 31661  98.8489 189.5422 0058035 227.9801 161.4103 14.26349737974581","category":"Weather"},{"name":"STARLINK-2286","line1":"1 48033U 21024BJ  23362.15755724  .00009245  00000+0  63861-3 0  9995","line2":"2 48033  53.0558 334.3259 0001420 108.0409 252.0735 15.06406459153142","category":"Starlink"},{"name":"COSMOS 2251 DEB","line1":"1 34816U 93036ABF 26104.29303036  .00000412  00000+0  37912-3 0  9993","line2":"2 34816  73.8866 303.1243 0371936 345.6492 193.0934 13.58609747844476","category":"Other"},{"name":"ONEWEB-0393","line1":"1 50473U 21132E   26137.15010140  .00000068  00000+0  14132-3 0  9996","line2":"2 50473  87.9159  12.0351 0001945  87.5518 272.5836 13.17648075214029","category":"Other"},{"name":"STARLINK-32862","line1":"1 62864U 25022L   26137.11820541  .00008843  00000+0  31026-3 0  9995","line2":"2 62864  53.1565 171.9983 0001033  86.2696 273.8423 15.30208755 72379","category":"Starlink"},{"name":"STARLINK-36285","line1":"1 68530U 26068Y   26136.88637867  .00011081  00000+0  38565-3 0  9995","line2":"2 68530  53.1578 172.6772 0001188  85.2955 274.8182 15.30204500  7387","category":"Starlink"},{"name":"KUIPER-00168","line1":"1 65781U 25217V   26137.14096145 -.00000711  00000+0 -64311-4 0  9992","line2":"2 65781  51.9023  85.4138 0000763  82.5106 277.5943 14.79931443 35220","category":"Other"},{"name":"FENGYUN 1C DEB","line1":"1 30811U 99025AUV 26103.55121919  .00001154  00000+0  11811-2 0  9997","line2":"2 30811  98.7655 135.9005 0280421  88.2166 275.1071 13.62270204945251","category":"Weather"},{"name":"TUSUR GO (RS78S)","line1":"1 61782U 24199AZ  26126.92283649  .06698914  24578-5  11300-2 0  9990","line2":"2 61782  97.2729   8.6700 0008386 236.8511 123.1981 16.33156919128453","category":"Other"},{"name":"STARLINK-36581","line1":"1 67543U 26014M   26137.13654727  .00012890  00000+0  40083-3 0  9999","line2":"2 67543  97.2796  24.3066 0000901  71.8502 288.2839 15.33451776 19272","category":"Starlink"},{"name":"STARLINK-34606","line1":"1 64730U 25144G   26136.94447667  .00010566  00000+0  36828-3 0  9998","line2":"2 64730  53.1589 223.8826 0001493  60.1259 299.9890 15.30206861 50164","category":"Starlink"},{"name":"ELECTRON KICK STAGE R/B","line1":"1 62928U 25028A   25069.58887048  .00004001  00000+0  45677-3 0  9990","line2":"2 62928  97.9527 125.4310 0040889 291.8195  67.8673 14.86059517  4410","category":"Other"},{"name":"KUIPER-00294","line1":"1 68594U 26072X   26136.90742426  .00021966  00000+0  61325-3 0  9994","line2":"2 68594  51.8702 328.5063 0010299 270.6047  89.3759 15.36604559  6563","category":"Other"},{"name":"ARIANE 5 DEB [SYLDA]","line1":"1 27952U 03043F   26104.28840133  .00000148  00000+0  33897-2 0  9991","line2":"2 27952   7.7611 331.0733 7142224 110.8530 334.3364  2.26368727186014","category":"Other"},{"name":"STARLINK-35262","line1":"1 65847U 25221AA  26137.18334963  .00006092  00000+0  21761-3 0  9994","line2":"2 65847  53.1588 130.6488 0001548 118.5466 241.5690 15.30203072 36561","category":"Starlink"},{"name":"FENGYUN 1C DEB","line1":"1 30906U 99025AYU 23178.09476310  .00001700  00000+0  92922-3 0  9998","line2":"2 30906  99.0708 132.9958 0082899 270.0691  89.0980 14.11683034838263","category":"Weather"},{"name":"2024-205D","line1":"1 61897U 24205D   26137.21136319  .00005556  00000+0  27889-3 0  9996","line2":"2 61897  97.4106 209.3441 0012966 159.2719 200.9043 15.17630303 83582","category":"Other"},{"name":"STARLINK-36351","line1":"1 67607U 26018U   26137.17680640 -.00001494  00000+0 -44012-4 0  9998","line2":"2 67607  97.2844 202.4731 0001075  84.0619 276.0746 15.33409635 17832","category":"Starlink"},{"name":"COSMOS 1261 DEB","line1":"1 12893U 81031F   26104.77593013  .00000593  00000+0  00000+0 0  9999","line2":"2 12893  64.4513 353.6794 7130618  26.1139 356.8900  2.01191566310830","category":"Other"}]}